{
  "type": "FeatureCollection",
  "features": [
    {
      "type": "Feature",
      "properties": {
        "norad_id": 34540,
        "name": "IRIDIUM 33 DEB",
        "group": "iridium-33-debris",
        "lat": 77.63984351664716,
        "lon": 111.9082748881521,
        "alt_km": 633.232685774652,
        "timestamp": "2025-12-09T14:52:26.547718+00:00",
        "meta_object_name": "IRIDIUM 33 DEB",
        "meta_object_id": "1997-051JH",
        "meta_epoch": "2025-12-08T22:22:37.047936",
        "meta_mean_motion": 14.75190663,
        "meta_eccentricity": 0.0015753,
        "meta_inclination": 86.3106,
        "meta_ra_of_asc_node": 309.347,
        "meta_arg_of_pericenter": 172.6926,
        "meta_mean_anomaly": 241.175,
        "meta_ephemeris_type": 0,
        "meta_classification_type": "U",
        "meta_norad_cat_id": 34540,
        "meta_element_set_no": 999,
        "meta_rev_at_epoch": 88965,
        "meta_bstar": 0.0020556,
        "meta_mean_motion_dot": 0.0001395,
        "meta_mean_motion_ddot": 0,
        "tle_line1": "1 34540U 97051JH  25342.93237324  .00013950  00000+0  20556-2 0  9994",
        "tle_line2": "2 34540  86.3106 309.3470 0015753 172.6926 241.1750 14.75190663889650"
      },
      "geometry": {
        "type": "Point",
        "coordinates": [
          111.9082748881521,
          77.63984351664716
        ]
      }
    },
    {
      "type": "Feature",
      "properties": {
        "norad_id": 34648,
        "name": "IRIDIUM 33 DEB",
        "group": "iridium-33-debris",
        "lat": -62.730744665012836,
        "lon": 110.23797824938164,
        "alt_km": 805.244054301982,
        "timestamp": "2025-12-09T14:52:26.547729+00:00",
        "meta_object_name": "IRIDIUM 33 DEB",
        "meta_object_id": "1997-051JZ",
        "meta_epoch": "2025-12-08T20:41:39.004800",
        "meta_mean_motion": 14.11300262,
        "meta_eccentricity": 0.01839546,
        "meta_inclination": 86.3913,
        "meta_ra_of_asc_node": 283.5113,
        "meta_arg_of_pericenter": 310.9542,
        "meta_mean_anomaly": 47.5843,
        "meta_ephemeris_type": 0,
        "meta_classification_type": "U",
        "meta_norad_cat_id": 34648,
        "meta_element_set_no": 999,
        "meta_rev_at_epoch": 84906,
        "meta_bstar": 0.013206348,
        "meta_mean_motion_dot": 0.00028062,
        "meta_mean_motion_ddot": 0,
        "tle_line1": "1 34648U 97051JZ  25342.86225700  .00028062  00000+0  13206-1 0  9993",
        "tle_line2": "2 34648  86.3913 283.5113 0183954 310.9542  47.5843 14.11300262849062"
      },
      "geometry": {
        "type": "Point",
        "coordinates": [
          110.23797824938164,
          -62.730744665012836
        ]
      }
    },
    {
      "type": "Feature",
      "properties": {
        "norad_id": 34651,
        "name": "IRIDIUM 33 DEB",
        "group": "iridium-33-debris",
        "lat": 39.87208943919286,
        "lon": -41.206615356968115,
        "alt_km": 773.3445851486085,
        "timestamp": "2025-12-09T14:52:26.547739+00:00",
        "meta_object_name": "IRIDIUM 33 DEB",
        "meta_object_id": "1997-051KC",
        "meta_epoch": "2025-12-08T21:21:49.899168",
        "meta_mean_motion": 14.25711995,
        "meta_eccentricity": 0.0142002,
        "meta_inclination": 86.2851,
        "meta_ra_of_asc_node": 142.2145,
        "meta_arg_of_pericenter": 216.1504,
        "meta_mean_anomaly": 143.0026,
        "meta_ephemeris_type": 0,
        "meta_classification_type": "U",
        "meta_norad_cat_id": 34651,
        "meta_element_set_no": 999,
        "meta_rev_at_epoch": 85841,
        "meta_bstar": 0.0042946,
        "meta_mean_motion_dot": 0.00011352,
        "meta_mean_motion_ddot": 0,
        "tle_line1": "1 34651U 97051KC  25342.89016087  .00011352  00000+0  42946-2 0  9994",
        "tle_line2": "2 34651  86.2851 142.2145 0142002 216.1504 143.0026 14.25711995858414"
      },
      "geometry": {
        "type": "Point",
        "coordinates": [
          -41.206615356968115,
          39.87208943919286
        ]
      }
    },
    {
      "type": "Feature",
      "properties": {
        "norad_id": 34652,
        "name": "IRIDIUM 33 DEB",
        "group": "iridium-33-debris",
        "lat": 33.95643880263256,
        "lon": 158.91397220757648,
        "alt_km": 702.5039435445615,
        "timestamp": "2025-12-09T14:52:26.547749+00:00",
        "meta_object_name": "IRIDIUM 33 DEB",
        "meta_object_id": "1997-051KD",
        "meta_epoch": "2025-12-08T10:58:52.274208",
        "meta_mean_motion": 14.61994532,
        "meta_eccentricity": 0.00263276,
        "meta_inclination": 86.3309,
        "meta_ra_of_asc_node": 341.9078,
        "meta_arg_of_pericenter": 313.8102,
        "meta_mean_anomaly": 199.1921,
        "meta_ephemeris_type": 0,
        "meta_classification_type": "U",
        "meta_norad_cat_id": 34652,
        "meta_element_set_no": 999,
        "meta_rev_at_epoch": 88421,
        "meta_bstar": 0.0013948529,
        "meta_mean_motion_dot": 7.048e-05,
        "meta_mean_motion_ddot": 0,
        "tle_line1": "1 34652U 97051KD  25342.45754947  .00007048  00000+0  13949-2 0  9999",
        "tle_line2": "2 34652  86.3309 341.9078 0026327 313.8102 199.1921 14.61994532884210"
      },
      "geometry": {
        "type": "Point",
        "coordinates": [
          158.91397220757648,
          33.95643880263256
        ]
      }
    },
    {
      "type": "Feature",
      "properties": {
        "norad_id": 34690,
        "name": "IRIDIUM 33 DEB",
        "group": "iridium-33-debris",
        "lat": 85.18411134350545,
        "lon": 87.09526485813741,
        "alt_km": 696.3303393282604,
        "timestamp": "2025-12-09T14:52:26.547759+00:00",
        "meta_object_name": "IRIDIUM 33 DEB",
        "meta_object_id": "1997-051KM",
        "meta_epoch": "2025-12-08T22:13:37.657056",
        "meta_mean_motion": 14.5507276,
        "meta_eccentricity": 0.0011287,
        "meta_inclination": 86.378,
        "meta_ra_of_asc_node": 38.6486,
        "meta_arg_of_pericenter": 40.9093,
        "meta_mean_anomaly": 14.7923,
        "meta_ephemeris_type": 0,
        "meta_classification_type": "U",
        "meta_norad_cat_id": 34690,
        "meta_element_set_no": 999,
        "meta_rev_at_epoch": 88039,
        "meta_bstar": 0.00058226,
        "meta_mean_motion_dot": 2.533e-05,
        "meta_mean_motion_ddot": 0,
        "tle_line1": "1 34690U 97051KM  25342.92613029  .00002533  00000+0  58226-3 0  9990",
        "tle_line2": "2 34690  86.3780  38.6486 0011287  40.9093  14.7923 14.55072760880396"
      },
      "geometry": {
        "type": "Point",
        "coordinates": [
          87.09526485813741,
          85.18411134350545
        ]
      }
    },
    {
      "type": "Feature",
      "properties": {
        "norad_id": 34693,
        "name": "IRIDIUM 33 DEB",
        "group": "iridium-33-debris",
        "lat": 44.343678271890894,
        "lon": -51.006617369810265,
        "alt_km": 472.0235409208253,
        "timestamp": "2025-12-09T14:52:26.547770+00:00",
        "meta_object_name": "IRIDIUM 33 DEB",
        "meta_object_id": "1997-051KQ",
        "meta_epoch": "2025-12-08T21:28:44.929344",
        "meta_mean_motion": 15.26526055,
        "meta_eccentricity": 0.0014837,
        "meta_inclination": 86.3061,
        "meta_ra_of_asc_node": 305.7324,
        "meta_arg_of_pericenter": 58.9741,
        "meta_mean_anomaly": 325.0117,
        "meta_ephemeris_type": 0,
        "meta_classification_type": "U",
        "meta_norad_cat_id": 34693,
        "meta_element_set_no": 999,
        "meta_rev_at_epoch": 88856,
        "meta_bstar": 0.0052511,
        "meta_mean_motion_dot": 0.00139885,
        "meta_mean_motion_ddot": 0,
        "tle_line1": "1 34693U 97051KQ  25342.89496446  .00139885  00000+0  52511-2 0  9992",
        "tle_line2": "2 34693  86.3061 305.7324 0014837  58.9741 325.0117 15.26526055888563"
      },
      "geometry": {
        "type": "Point",
        "coordinates": [
          -51.006617369810265,
          44.343678271890894
        ]
      }
    },
    {
      "type": "Feature",
      "properties": {
        "norad_id": 34696,
        "name": "IRIDIUM 33 DEB",
        "group": "iridium-33-debris",
        "lat": 66.09958329446911,
        "lon": -159.68653566130334,
        "alt_km": 648.395553528926,
        "timestamp": "2025-12-09T14:52:26.547780+00:00",
        "meta_object_name": "IRIDIUM 33 DEB",
        "meta_object_id": "1997-051KT",
        "meta_epoch": "2025-12-09T03:00:36.491904",
        "meta_mean_motion": 14.6478549,
        "meta_eccentricity": 0.00742625,
        "meta_inclination": 86.1848,
        "meta_ra_of_asc_node": 29.204,
        "meta_arg_of_pericenter": 179.704,
        "meta_mean_anomaly": 209.5793,
        "meta_ephemeris_type": 0,
        "meta_classification_type": "U",
        "meta_norad_cat_id": 34696,
        "meta_element_set_no": 999,
        "meta_rev_at_epoch": 86620,
        "meta_bstar": 0.0059272295,
        "meta_mean_motion_dot": 0.00033047,
        "meta_mean_motion_ddot": 0,
        "tle_line1": "1 34696U 97051KT  25343.12542236  .00033047  00000+0  59272-2 0  9995",
        "tle_line2": "2 34696  86.1848  29.2040 0074262 179.7040 209.5793 14.64785490866206"
      },
      "geometry": {
        "type": "Point",
        "coordinates": [
          -159.68653566130334,
          66.09958329446911
        ]
      }
    }
  ]
}